GOES 1 (SMS-C) [-]      
1 08366U 75100A   23325.55588597  .00000052  00000+0  00000+0 0  9998
2 08366   6.9938 289.1694 0003809 300.4603 261.9966  1.00266179175650
GOES 2 [-]              
1 10061U 77048A   23326.15195314  .00000078  00000+0  00000+0 0  9992
2 10061   8.6495 301.7360 0011083  27.7431   3.9275  0.99396776114197
GOES 3 [-]              
1 10953U 78062A   23326.16785784 -.00000099  00000+0  00000+0 0  9990
2 10953   9.0274 306.6511 0001920 229.6872 314.9576  0.99363590119271
GOES 4 [-]              
1 11964U 80074A   23326.12110325 -.00000074  00000+0  00000+0 0  9991
2 11964  10.0303 310.4866 0030531  87.4548 258.4352  0.99232719118322
GOES 5 [-]              
1 12472U 81049A   23326.05777889  .00000025  00000+0  00000+0 0  9990
2 12472  11.0439 322.3210 0002717 252.5882  99.7812  1.00218270113550
GOES 6 [-]              
1 14050U 83041A   23325.58799567  .00000047  00000+0  00000+0 0  9996
2 14050  11.6951 327.7570 0003860 197.8426 336.0601  1.00244617206608
GOES 7 [-]              
1 17561U 87022A   23325.56284778 -.00000129  00000+0  00000+0 0  9992
2 17561  13.7849 344.4168 0002156  85.2660  99.6227  0.99891739117587
GOES 8 [-]              
1 23051U 94022A   23325.50053951 -.00000217  00000+0  00000+0 0  9990
2 23051  13.6226  20.5135 0002463  69.6998 102.8638  0.98906110114841
GOES 9 [-]              
1 23581U 95025A   23325.80022053 -.00000111  00000+0  00000+0 0  9997
2 23581  13.1253  21.0486 0007034 152.3124 194.1345  0.98801043103485
GOES 10 [-]             
1 24786U 97019A   23325.33104971 -.00000205  00000+0  00000+0 0  9992
2 24786  12.0182  27.4345 0029929 211.9215 243.1761  0.99123690 96761
GOES 11 [-]             
1 26352U 00022A   23325.94247378 -.00000100  00000+0  00000+0 0  9991
2 26352   9.7974  55.0224 0004544 193.0774 165.9319  0.99044171 85701
GOES 12 [-]             
1 26871U 01031A   23324.67218017 -.00000171  00000+0  00000+0 0  9993
2 26871  10.4616  44.6270 0004573 274.2090  93.0019  0.99136520 81455
EWS-G1 (GOES 13) [+]    
1 29155U 06018A   23325.79726177 -.00000146  00000+0  00000+0 0  9998
2 29155   1.9109  89.0084 0005201 145.9157 116.5915  0.99010643 33964
GOES 14 [B]             
1 35491U 09033A   23326.50170935 -.00000060  00000+0  00000+0 0  9998
2 35491   0.2221 261.4370 0001812 273.4697 318.3417  1.00270872 52757
GOES 15 [B]             
1 36411U 10008A   23325.80866174  .00000042  00000+0  00000+0 0  9993
2 36411   0.2210 273.4837 0005860 333.3870 166.3757  1.00263065 50230
GOES 16 [+]             
1 41866U 16071A   23326.42621014 -.00000244  00000+0  00000+0 0  9995
2 41866   0.0314 268.1893 0001390  18.8723 212.3463  1.00279412 25693
GOES 17 [+]             
1 43226U 18022A   23326.17036302 -.00000086  00000+0  00000+0 0  9991
2 43226   0.0040 255.5646 0001919 331.5806 150.4403  1.00271122 21031
GOES 18 [+]             
1 51850U 22021A   23326.44146490  .00000102  00000+0  00000+0 0  9995
2 51850   0.0009 279.1316 0000372 288.4843 235.4928  1.00271404  6400
